{
  "type": "FeatureCollection",
  "features": [
    {
      "type": "Feature",
      "properties": {
        "norad_id": 38867,
        "name": "INTELSAT 23 (IS-23)",
        "group": "intelsat",
        "lat": 0.009511334586091942,
        "lon": -162.79910817444576,
        "alt_km": 35784.87579908447,
        "timestamp": "2025-12-18T10:51:25.457521+00:00",
        "meta_object_name": "INTELSAT 23 (IS-23)",
        "meta_object_id": "2012-057A",
        "meta_epoch": "2025-12-17T09:38:59.623872",
        "meta_mean_motion": 1.00273732,
        "meta_eccentricity": 3.78e-05,
        "meta_inclination": 0.0295,
        "meta_ra_of_asc_node": 83.0302,
        "meta_arg_of_pericenter": 175.0842,
        "meta_mean_anomaly": 279.9522,
        "meta_ephemeris_type": 0,
        "meta_classification_type": "U",
        "meta_norad_cat_id": 38867,
        "meta_element_set_no": 999,
        "meta_rev_at_epoch": 4813,
        "meta_bstar": 0,
        "meta_mean_motion_dot": -2.6e-06,
        "meta_mean_motion_ddot": 0,
        "tle_line1": "1 38867U 12057A   25351.40207898 -.00000260  00000+0  00000+0 0  9998",
        "tle_line2": "2 38867   0.0295  83.0302 0000378 175.0842 279.9522  1.00273732 48138"
      },
      "geometry": {
        "type": "Point",
        "coordinates": [
          -162.79910817444576,
          0.009511334586091942
        ]
      }
    },
    {
      "type": "Feature",
      "properties": {
        "norad_id": 39360,
        "name": "FM-6",
        "group": "intelsat",
        "lat": 0.015898872350804363,
        "lon": 133.9693367492418,
        "alt_km": 35778.03143006234,
        "timestamp": "2025-12-18T10:51:25.457533+00:00",
        "meta_object_name": "FM-6",
        "meta_object_id": "2013-058A",
        "meta_epoch": "2025-12-17T21:20:04.543008",
        "meta_mean_motion": 1.00269676,
        "meta_eccentricity": 0.00028865,
        "meta_inclination": 0.0121,
        "meta_ra_of_asc_node": 66.4353,
        "meta_arg_of_pericenter": 112.057,
        "meta_mean_anomaly": 112.1234,
        "meta_ephemeris_type": 0,
        "meta_classification_type": "U",
        "meta_norad_cat_id": 39360,
        "meta_element_set_no": 999,
        "meta_rev_at_epoch": 4425,
        "meta_bstar": 0,
        "meta_mean_motion_dot": 8e-08,
        "meta_mean_motion_ddot": 0,
        "tle_line1": "1 39360U 13058A   25351.88894147  .00000008  00000+0  00000+0 0  9999",
        "tle_line2": "2 39360   0.0121  66.4353 0002886 112.0570 112.1234  1.00269676 44250"
      },
      "geometry": {
        "type": "Point",
        "coordinates": [
          133.9693367492418,
          0.015898872350804363
        ]
      }
    },
    {
      "type": "Feature",
      "properties": {
        "norad_id": 40271,
        "name": "INTELSAT 30 (IS-30)",
        "group": "intelsat",
        "lat": 0.021050019404390084,
        "lon": 155.12156554628498,
        "alt_km": 35784.12441329191,
        "timestamp": "2025-12-18T10:51:25.457545+00:00",
        "meta_object_name": "INTELSAT 30 (IS-30)",
        "meta_object_id": "2014-062A",
        "meta_epoch": "2025-12-17T14:35:07.808928",
        "meta_mean_motion": 1.00271096,
        "meta_eccentricity": 0.00015894,
        "meta_inclination": 0.0158,
        "meta_ra_of_asc_node": 25.3202,
        "meta_arg_of_pericenter": 58.6746,
        "meta_mean_anomaly": 126.2171,
        "meta_ephemeris_type": 0,
        "meta_classification_type": "U",
        "meta_norad_cat_id": 40271,
        "meta_element_set_no": 999,
        "meta_rev_at_epoch": 497,
        "meta_bstar": 0,
        "meta_mean_motion_dot": -1.26e-06,
        "meta_mean_motion_ddot": 0,
        "tle_line1": "1 40271U 14062A   25351.60772927 -.00000126  00000+0  00000+0 0  9991",
        "tle_line2": "2 40271   0.0158  25.3202 0001589  58.6746 126.2171  1.00271096  4979"
      },
      "geometry": {
        "type": "Point",
        "coordinates": [
          155.12156554628498,
          0.021050019404390084
        ]
      }
    },
    {
      "type": "Feature",
      "properties": {
        "norad_id": 40333,
        "name": "DIRECTV 14",
        "group": "intelsat",
        "lat": 0.009212623359120192,
        "lon": 150.93667217426264,
        "alt_km": 35783.94432987934,
        "timestamp": "2025-12-18T10:51:25.457557+00:00",
        "meta_object_name": "DIRECTV 14",
        "meta_object_id": "2014-078B",
        "meta_epoch": "2025-12-17T21:24:49.087584",
        "meta_mean_motion": 1.00270651,
        "meta_eccentricity": 6.041e-05,
        "meta_inclination": 0.0191,
        "meta_ra_of_asc_node": 340.5733,
        "meta_arg_of_pericenter": 183.4155,
        "meta_mean_anomaly": 144.7598,
        "meta_ephemeris_type": 0,
        "meta_classification_type": "U",
        "meta_norad_cat_id": 40333,
        "meta_element_set_no": 999,
        "meta_rev_at_epoch": 4022,
        "meta_bstar": 0,
        "meta_mean_motion_dot": -1e-06,
        "meta_mean_motion_ddot": 0,
        "tle_line1": "1 40333U 14078B   25351.89223481 -.00000100  00000+0  00000+0 0  9996",
        "tle_line2": "2 40333   0.0191 340.5733 0000604 183.4155 144.7598  1.00270651 40226"
      },
      "geometry": {
        "type": "Point",
        "coordinates": [
          150.93667217426264,
          0.009212623359120192
        ]
      }
    },
    {
      "type": "Feature",
      "properties": {
        "norad_id": 40663,
        "name": "DIRECTV 15",
        "group": "intelsat",
        "lat": 0.020123719549140936,
        "lon": 147.27844888801368,
        "alt_km": 35785.57450267784,
        "timestamp": "2025-12-18T10:51:25.457569+00:00",
        "meta_object_name": "DIRECTV 15",
        "meta_object_id": "2015-026A",
        "meta_epoch": "2025-12-17T21:23:49.183872",
        "meta_mean_motion": 1.00270766,
        "meta_eccentricity": 2.254e-05,
        "meta_inclination": 0.0266,
        "meta_ra_of_asc_node": 351.1527,
        "meta_arg_of_pericenter": 123.4297,
        "meta_mean_anomaly": 190.2545,
        "meta_ephemeris_type": 0,
        "meta_classification_type": "U",
        "meta_norad_cat_id": 40663,
        "meta_element_set_no": 999,
        "meta_rev_at_epoch": 3864,
        "meta_bstar": 0,
        "meta_mean_motion_dot": 0,
        "meta_mean_motion_ddot": 0,
        "tle_line1": "1 40663U 15026A   25351.89154148  .00000000  00000+0  00000+0 0  9997",
        "tle_line2": "2 40663   0.0266 351.1527 0000225 123.4297 190.2545  1.00270766 38642"
      },
      "geometry": {
        "type": "Point",
        "coordinates": [
          147.27844888801368,
          0.020123719549140936
        ]
      }
    },
    {
      "type": "Feature",
      "properties": {
        "norad_id": 40664,
        "name": "SKY MEXICO-1",
        "group": "intelsat",
        "lat": -0.016428261503946617,
        "lon": 171.36636423602397,
        "alt_km": 35790.24998246947,
        "timestamp": "2025-12-18T10:51:25.457582+00:00",
        "meta_object_name": "SKY MEXICO-1",
        "meta_object_id": "2015-026B",
        "meta_epoch": "2025-12-17T17:33:45.798912",
        "meta_mean_motion": 1.00271097,
        "meta_eccentricity": 0.00023995,
        "meta_inclination": 0.0161,
        "meta_ra_of_asc_node": 308.5816,
        "meta_arg_of_pericenter": 335.6425,
        "meta_mean_anomaly": 347.0559,
        "meta_ephemeris_type": 0,
        "meta_classification_type": "U",
        "meta_norad_cat_id": 40664,
        "meta_element_set_no": 999,
        "meta_rev_at_epoch": 3863,
        "meta_bstar": 0,
        "meta_mean_motion_dot": -2.09e-06,
        "meta_mean_motion_ddot": 0,
        "tle_line1": "1 40664U 15026B   25351.73178008 -.00000209  00000+0  00000+0 0  9994",
        "tle_line2": "2 40664   0.0161 308.5816 0002399 335.6425 347.0559  1.00271097 38632"
      },
      "geometry": {
        "type": "Point",
        "coordinates": [
          171.36636423602397,
          -0.016428261503946617
        ]
      }
    },
    {
      "type": "Feature",
      "properties": {
        "norad_id": 40874,
        "name": "INTELSAT 34 (IS-34)",
        "group": "intelsat",
        "lat": -0.02443764656448196,
        "lon": -165.34254468470706,
        "alt_km": 35785.000096397554,
        "timestamp": "2025-12-18T10:51:25.457594+00:00",
        "meta_object_name": "INTELSAT 34 (IS-34)",
        "meta_object_id": "2015-039A",
        "meta_epoch": "2025-12-17T18:11:54.551328",
        "meta_mean_motion": 1.00270196,
        "meta_eccentricity": 6.286e-05,
        "meta_inclination": 0.014,
        "meta_ra_of_asc_node": 329.1951,
        "meta_arg_of_pericenter": 173.2674,
        "meta_mean_anomaly": 161.6423,
        "meta_ephemeris_type": 0,
        "meta_classification_type": "U",
        "meta_norad_cat_id": 40874,
        "meta_element_set_no": 999,
        "meta_rev_at_epoch": 3780,
        "meta_bstar": 0,
        "meta_mean_motion_dot": -2.6e-06,
        "meta_mean_motion_ddot": 0,
        "tle_line1": "1 40874U 15039A   25351.75827027 -.00000260  00000+0  00000+0 0  9992",
        "tle_line2": "2 40874   0.0140 329.1951 0000628 173.2674 161.6423  1.00270196 37803"
      },
      "geometry": {
        "type": "Point",
        "coordinates": [
          -165.34254468470706,
          -0.02443764656448196
        ]
      }
    }
  ]
}